[{"OBJECT_NAME":"HAWK-11B","OBJECT_ID":"2024-247C","EPOCH":"2026-03-09T10:44:06.809856","MEAN_MOTION":15.2884707,"ECCENTRICITY":0.00046902,"INCLINATION":45.0161,"RA_OF_ASC_NODE":115.761,"ARG_OF_PERICENTER":333.0326,"MEAN_ANOMALY":27.0314,"EPHEMERIS_TYPE":0,"CLASSIFICATION_TYPE":"U","NORAD_CAT_ID":62379,"ELEMENT_SET_NO":999,"REV_AT_EPOCH":6773,"BSTAR":0.00032841927,"MEAN_MOTION_DOT":9.093e-5,"MEAN_MOTION_DDOT":0},{"OBJECT_NAME":"STARLINK-34603","OBJECT_ID":"2025-176Y","EPOCH":"2026-03-09T12:27:41.741568","MEAN_MOTION":15.30187827,"ECCENTRICITY":0.00013435,"INCLINATION":53.1574,"RA_OF_ASC_NODE":153.5708,"ARG_OF_PERICENTER":71.6489,"MEAN_ANOMALY":288.4657,"EPHEMERIS_TYPE":0,"CLASSIFICATION_TYPE":"U","NORAD_CAT_ID":65220,"ELEMENT_SET_NO":999,"REV_AT_EPOCH":3309,"BSTAR":0.00092131687,"MEAN_MOTION_DOT":0.00027017,"MEAN_MOTION_DDOT":0}]
